{
  "norad_id": 63764,
  "name": "STARLINK-33760",
  "history": [
    {
      "epoch": "2026-03-28T21:31:24.251808",
      "apogee_km": 484.0553649516396,
      "perigee_km": 481.8996027808089,
      "latitude_deg": 5.135524091575123,
      "longitude_deg": -77.50638688006438,
      "semi_major_axis_km": 6861.114483866224,
      "eccentricity": 0.0001571,
      "inclination_deg": 43.0041,
      "raan_deg": 296.8855,
      "arg_perigee_deg": 270.8905,
      "mean_anomaly_deg": 89.1767,
      "mean_motion_rev_day": 15.27603916
    },
    {
      "epoch": "2026-03-28T21:31:24.252672",
      "apogee_km": 484.05557078507445,
      "perigee_km": 481.89939694737495,
      "latitude_deg": 5.135517259608666,
      "longitude_deg": -77.50638592010364,
      "semi_major_axis_km": 6861.114483866224,
      "eccentricity": 0.00015713,
      "inclination_deg": 43.0041,
      "raan_deg": 296.8855,
      "arg_perigee_deg": 270.8905,
      "mean_anomaly_deg": 89.1767,
      "mean_motion_rev_day": 15.27603916
    }
  ]
}